0 ARIANE 3 R/B
1 15388U 84114C   13281.49070383  .00001152  00000-0  14784-2 0  9111
2 15388 007.0042 225.8538 6971451 057.4978 046.9937 02.62054187180873
0 ARIANE 3 R/B
1 15388U 84114C   13284.12315780  .00001170  00000-0  14736-2 0  9125
2 15388 006.9990 224.5364 6971358 060.0323 010.4630 02.62062880180949
0 ARIANE 3 R/B
1 15388U 84114C   13285.29173153  .00001090  00000-0  12830-2 0  9135
2 15388 006.9968 223.9496 6971388 061.1590 032.9239 02.62066332180977
0 ARIANE 3 R/B
1 15388U 84114C   13287.18249797  .00001428  00000-0  15090-2 0  9140
2 15388 006.9930 222.9986 6971338 062.9854 016.7535 02.62071286181026
0 ARIANE 3 R/B
1 15388U 84114C   13288.33326719  .00001753  00000-0  18306-2 0  9153
2 15388 006.9910 222.4196 6971236 064.0972 022.4534 02.62076198181056
0 ARIANE 3 R/B
1 15388U 84114C   13290.24826889  .00001797  00000-0  19107-2 0  9168
2 15388 006.9881 221.4544 6971184 065.9462 029.2242 02.62082634181104
0 ARIANE 3 R/B
1 15388U 84114C   13292.13704878  .00001684  00000-0  19298-2 0  9178
2 15388 006.9850 220.5027 6971145 067.7688 011.2986 02.62089196181154
0 ARIANE 3 R/B
1 15388U 84114C   13293.32813289  .00001739  00000-0  21072-2 0  9182
2 15388 006.9831 219.8993 6971119 068.9216 055.1130 02.62094558181186
0 ARIANE 3 R/B
1 15388U 84114C   13294.78715538  .00001732  00000-0  22210-2 0  9190
2 15388 006.9810 219.1613 6971090 070.3323 351.7642 02.62100190181227
0 ARIANE 3 R/B
1 15388U 84114C   13295.21307331  .00001571  00000-0  20555-2 0  9200
2 15388 006.9807 218.9475 6971175 070.7422 033.6334 02.62103159181237
